*******************************************************************************
 Revised: Dec 14, 2018             Despina / (Neptune)                      805

 SATELLITE PHYSICAL PROPERTIES:
  Radius (km)             =  74 +- 10       Density (g cm^-3)   =              
  Mass (10^20 kg )        =                 Geometric Albedo    =  0.06 
                                            V(1,0)              = +7.9 

 SATELLITE ORBITAL DATA:
  Semi-major axis, a (km) = 52.526(10^3)    Orbital period      = 0.334655 d
  Eccentricity, e         = 0.0             Rotational period   = 
  Inclination, i  (deg)   = 0.07
*******************************************************************************
 
 
*******************************************************************************
Ephemeris / WWW_USER Fri Jun 19 18:56:56 2020 Pasadena, USA      / Horizons
*******************************************************************************
Target body name: Despina (805)                   {source: nep090_merged_DE435}
Center body name: Solar System Barycenter (0)     {source: DE431mx}
Center-site name: BODY CENTER
*******************************************************************************
Start time      : A.D. 1969-Jun-28 00:00:00.0000 TDB
Stop  time      : A.D. 2045-Jan-20 00:00:00.0000 TDB
Step-size       : 7200 minutes
*******************************************************************************
Center geodetic : 0.00000000,0.00000000,0.0000000 {E-lon(deg),Lat(deg),Alt(km)}
Center cylindric: 0.00000000,0.00000000,0.0000000 {E-lon(deg),Dxy(km),Dz(km)}
Center radii    : (undefined)                                                  
Output units    : AU-D
Output type     : GEOMETRIC cartesian states
Output format   : 2 (position and velocity)
Reference frame : Ecliptic of J2000.0
*******************************************************************************
            JDTDB,            Calendar Date (TDB),        delta-T,                      X,                      Y,                      Z,                     VX,                     VY,                     VZ,
******************************************************************************************************************************************************************************************************************
$$SOE
2448140.500000000, A.D. 1990-Sep-06 00:00:00.0000,      57.182568,  7.145804853031223E+00, -2.934337841724761E+01,  4.396916881076375E-01, -3.121900911194137E-03, -5.301632663012401E-05,  2.136500545337507E-03,
2448145.500000000, A.D. 1990-Sep-11 00:00:00.0000,      57.182505,  7.161071493831293E+00, -2.933958077714976E+01,  4.392132891547944E-01, -2.707333759931355E-03,  2.261926699162223E-03,  2.794456141124832E-03,
2448150.500000000, A.D. 1990-Sep-16 00:00:00.0000,      57.182454,  7.176320153446963E+00, -2.933581982502664E+01,  4.387252153471555E-01, -1.506321237274360E-03,  4.371951233261165E-03,  3.058096866421071E-03,
2448155.500000000, A.D. 1990-Sep-21 00:00:00.0000,      57.182415,  7.191536879298543E+00, -2.933208826736482E+01,  4.382358834124134E-01,  3.170488890559060E-04,  5.987319706708121E-03,  2.890553805605448E-03,
2448160.500000000, A.D. 1990-Sep-26 00:00:00.0000,      57.182388,  7.206711607106178E+00, -2.932837374827745E+01,  4.377539805084753E-01,  2.513172179363120E-03,  6.886405727962640E-03,  2.314424436626674E-03,
2448165.500000000, A.D. 1990-Oct-01 00:00:00.0000,      57.182371,  7.221839565024425E+00, -2.932466065709474E+01,  4.372871043261037E-01,  4.780339139195766E-03,  6.945978190580776E-03,  1.408958468137833E-03,
2448170.500000000, A.D. 1990-Oct-06 00:00:00.0000,      57.182365,  7.236922184288120E+00, -2.932093229045740E+01,  4.368405695484017E-01,  6.806787488700504E-03,  6.158295512523797E-03,  2.986879508231127E-04,
2448175.500000000, A.D. 1990-Oct-11 00:00:00.0000,      57.182371,  7.251967063018449E+00, -2.931717300525356E+01,  4.364167172015047E-01,  8.314203339282377E-03,  4.632224343170877E-03, -8.637922064416953E-04,
2448180.500000000, A.D. 1990-Oct-16 00:00:00.0000,      57.182392,  7.266986942472141E+00, -2.931337017791787E+01,  4.360147493524039E-01,  9.095937438456580E-03,  2.577577678354748E-03, -1.919141889470542E-03,
2448185.500000000, A.D. 1990-Oct-21 00:00:00.0000,      57.182425,  7.281997761158542E+00, -2.930951587399760E+01,  4.356310277738777E-01,  9.045608501234178E-03,  2.763308876971801E-04, -2.723269104721614E-03,
2448190.500000000, A.D. 1990-Oct-26 00:00:00.0000,      57.182470,  7.297016258810478E+00, -2.930560803899479E+01,  4.352596006505363E-01,  8.171000507382904E-03, -1.956154569368968E-03, -3.166477775994851E-03,
2448195.500000000, A.D. 1990-Oct-31 00:00:00.0000,      57.182524,  7.312057586867343E+00, -2.930165095106499E+01,  4.348928910555830E-01,  6.592274125036610E-03, -3.814344746035293E-03, -3.188352410252676E-03,
2448200.500000000, A.D. 1990-Nov-05 00:00:00.0000,      57.182589,  7.327133379870773E+00, -2.929765475947436E+01,  4.345225447467392E-01,  4.525308345124753E-03, -5.043672790158152E-03, -2.785740929441055E-03,
2448205.500000000, A.D. 1990-Nov-10 00:00:00.0000,      57.182665,  7.342250382126839E+00, -2.929363402708377E+01,  4.341404834979815E-01,  2.252295972207704E-03, -5.475498269529844E-03, -2.013212099680412E-03,
2448210.500000000, A.D. 1990-Nov-15 00:00:00.0000,      57.182753,  7.357409684054653E+00, -2.928960558284730E+01,  4.337400737982065E-01,  8.395436767840364E-05, -5.050077296302290E-03, -9.762184170779625E-04,
2448215.500000000, A.D. 1990-Nov-20 00:00:00.0000,      57.182852,  7.372606500416685E+00, -2.928558606321881E+01,  4.333172376342050E-01, -1.682534049588850E-03, -3.824927723499381E-03,  1.832092360555546E-04,
2448220.500000000, A.D. 1990-Nov-25 00:00:00.0000,      57.182958,  7.387830611290320E+00, -2.928158962276959E+01,  4.328711426224289E-01, -2.804315382509608E-03, -1.967499520974996E-03,  1.305948274224398E-03,
2448225.500000000, A.D. 1990-Nov-30 00:00:00.0000,      57.183072,  7.403067558297985E+00, -2.927762613141474E+01,  4.324043063514301E-01, -3.126636598864817E-03,  2.678148331297689E-04,  2.237673530967016E-03,
2448230.500000000, A.D. 1990-Dec-05 00:00:00.0000,      57.183191,  7.418300606938527E+00, -2.927370000298301E+01,  4.319220946984578E-01, -2.604847904889848E-03,  2.574438813719469E-03,  2.850501060163488E-03,
2448235.500000000, A.D. 1990-Dec-10 00:00:00.0000,      57.183318,  7.433513210120871E+00, -2.926980963771365E+01,  4.314318080395741E-01, -1.310809554239911E-03,  4.635804835962859E-03,  3.060605107112597E-03,
2448240.500000000, A.D. 1990-Dec-15 00:00:00.0000,      57.183452,  7.448691522572629E+00, -2.926594756237486E+01,  4.309416288929162E-01,  5.770269209835384E-04,  6.169425186441632E-03,  2.839612110134764E-03,
2448245.500000000, A.D. 1990-Dec-20 00:00:00.0000,      57.183590,  7.463826384746538E+00, -2.926210124202213E+01,  4.304596379511404E-01,  2.798944116243517E-03,  6.965301422312871E-03,  2.218209504195909E-03,
2448250.500000000, A.D. 1990-Dec-25 00:00:00.0000,      57.183731,  7.478914474555848E+00, -2.925825473350393E+01,  4.299928607754819E-01,  5.050339908029451E-03,  6.915131708038093E-03,  1.281702178390424E-03,
2448255.500000000, A.D. 1990-Dec-30 00:00:00.0000,      57.183873,  7.493958509350697E+00, -2.925439087485556E+01,  4.295464406971276E-01,  7.023225944057406E-03,  6.026567584758270E-03,  1.582133634538590E-04,
2448260.500000000, A.D. 1991-Jan-04 00:00:00.0000,      58.184015,  7.508966726420197E+00, -2.925049384170584E+01,  4.291228458278197E-01,  8.448191736088939E-03,  4.421808489862802E-03, -9.985647765989997E-04,
2448265.500000000, A.D. 1991-Jan-09 00:00:00.0000,      58.184158,  7.523951770145293E+00, -2.924655144616272E+01,  4.287213628586910E-01,  9.130556340056856E-03,  2.320797242993874E-03, -2.030357036320726E-03,
2448270.500000000, A.D. 1991-Jan-14 00:00:00.0000,      58.184301,  7.538929189609361E+00, -2.924255683156379E+01,  4.283380475942671E-01,  8.976433924285680E-03,  1.111288253355197E-05, -2.795814864401574E-03,
2448275.500000000, A.D. 1991-Jan-19 00:00:00.0000,      58.184443,  7.553915500800437E+00, -2.923850924552985E+01,  4.279662805654231E-01,  8.005973798436218E-03, -2.191103438784785E-03, -3.189842867636440E-03,
2448280.500000000, A.D. 1991-Jan-24 00:00:00.0000,      58.184580,  7.568925988627805E+00, -2.923441398953026E+01,  4.275978055644596E-01,  6.351125053331600E-03, -3.983764231967033E-03, -3.158227529772136E-03,
2448285.500000000, A.D. 1991-Jan-29 00:00:00.0000,      58.184712,  7.583972435396664E+00, -2.923028160601088E+01,  4.272240581866030E-01,  4.238373141422874E-03, -5.120577053383407E-03, -2.705316703385841E-03,
2448290.500000000, A.D. 1991-Feb-03 00:00:00.0000,      58.184837,  7.599061267327254E+00, -2.922612656100576E+01,  4.268373731738338E-01,  1.957841737959713E-03, -5.444765209440772E-03, -1.893261604752909E-03,
2448295.500000000, A.D. 1991-Feb-08 00:00:00.0000,      58.184957,  7.614192567649877E+00, -2.922196541876160E+01,  4.264319335719086E-01, -1.771990948432954E-04, -4.911151396186370E-03, -8.335806194773787E-04,
2448300.500000000, A.D. 1991-Feb-13 00:00:00.0000,      58.185071,  7.629360148018931E+00, -2.921781472762735E+01,  4.260043835794839E-01, -1.873366128270814E-03, -3.592717634843248E-03,  3.281962128273941E-04,
2448305.500000000, A.D. 1991-Feb-18 00:00:00.0000,      58.185177,  7.644552626131835E+00, -2.921368867052466E+01,  4.255541830422094E-01, -2.898327121138795E-03, -1.670539291474874E-03,  1.432769977457641E-03,
2448310.500000000, A.D. 1991-Feb-23 00:00:00.0000,      58.185274,  7.659755164477795E+00, -2.920959695691603E+01,  4.250837431337534E-01, -3.112541812197506E-03,  5.913637206597873E-04,  2.328705880200500E-03,
2448315.500000000, A.D. 1991-Feb-28 00:00:00.0000,      58.185358,  7.674951491041364E+00, -2.920554332478838E+01,  4.245982704557926E-01, -2.487523270418750E-03,  2.882841450036111E-03,  2.893314991122882E-03,
